CSS (TIANHE)            
1 48274U 21035A   24252.54631230  .00064048  00000+0  66863-3 0  9998
2 48274  41.4687 295.0062 0001308  60.2319 299.8651 15.63568957192135
